{
    "week": 296,
    "satellites": [
        {
            "Name": "BEIDOU-3 M8 (C28)",
            "Line1": "1 43108U 18003B   24344.08609815 -.00000059  00000+0  00000+0 0  9995",
            "Line2": "2 43108  54.7985 321.5783 0005099 269.8246  90.1196  1.86230719 47021",
            "SatelliteNumber": "43108",
            "Classification": "U",
            "LaunchYear": "18",
            "LaunchNumber": "003",
            "PieceOfLaunch": "B",
            "EpochYear": "24",
            "EpochDay": 344.08609815,
            "FirstDerivativeMeanMotion": -5.9e-07,
            "SecondDerivativeMeanMotion": "00000+0",
            "BSTAR": "00000+0",
            "SetNumber": "999",
            "Inclination": 54.7985,
            "RAAN": 321.5783,
            "Eccentricity": 0.0005099,
            "ArgumentOfPerigee": 269.8246,
            "MeanAnomaly": 90.1196,
            "MeanMotion": 1.86230719,
            "RevolutionNumber": "4702"
        },
        {
            "Name": "BEIDOU-3 M4 (C22)",
            "Line1": "1 43207U 18018A   24344.52723588 -.00000024  00000+0  00000+0 0  9996",
            "Line2": "2 43207  56.1667  81.5130 0003740   4.1690 355.8363  1.86230861 46414",
            "SatelliteNumber": "43207",
            "Classification": "U",
            "LaunchYear": "18",
            "LaunchNumber": "018",
            "PieceOfLaunch": "A",
            "EpochYear": "24",
            "EpochDay": 344.52723588,
            "FirstDerivativeMeanMotion": -2.4e-07,
            "SecondDerivativeMeanMotion": "00000+0",
            "BSTAR": "00000+0",
            "SetNumber": "999",
            "Inclination": 56.1667,
            "RAAN": 81.513,
            "Eccentricity": 0.000374,
            "ArgumentOfPerigee": 4.169,
            "MeanAnomaly": 355.8363,
            "MeanMotion": 1.86230861,
            "RevolutionNumber": "4641"
        },
        {
            "Name": "BEIDOU-3 M3 (C21)",
            "Line1": "1 43208U 18018B   24344.59383280 -.00000025  00000+0  00000+0 0  9996",
            "Line2": "2 43208  56.1662  81.5150 0006288 309.0189  50.9271  1.86231009 46418",
            "SatelliteNumber": "43208",
            "Classification": "U",
            "LaunchYear": "18",
            "LaunchNumber": "018",
            "PieceOfLaunch": "B",
            "EpochYear": "24",
            "EpochDay": 344.5938328,
            "FirstDerivativeMeanMotion": -2.5e-07,
            "SecondDerivativeMeanMotion": "00000+0",
            "BSTAR": "00000+0",
            "SetNumber": "999",
            "Inclination": 56.1662,
            "RAAN": 81.515,
            "Eccentricity": 0.0006288,
            "ArgumentOfPerigee": 309.0189,
            "MeanAnomaly": 50.9271,
            "MeanMotion": 1.86231009,
            "RevolutionNumber": "4641"
        },
        {
            "Name": "BEIDOU-3 M9 (C29)",
            "Line1": "1 43245U 18029A   24344.27654367 -.00000060  00000+0  00000+0 0  9990",
            "Line2": "2 43245  54.6836 319.2783 0002223 275.5543  84.4209  1.86232286 45560",
            "SatelliteNumber": "43245",
            "Classification": "U",
            "LaunchYear": "18",
            "LaunchNumber": "029",
            "PieceOfLaunch": "A",
            "EpochYear": "24",
            "EpochDay": 344.27654367,
            "FirstDerivativeMeanMotion": -6e-07,
            "SecondDerivativeMeanMotion": "00000+0",
            "BSTAR": "00000+0",
            "SetNumber": "999",
            "Inclination": 54.6836,
            "RAAN": 319.2783,
            "Eccentricity": 0.0002223,
            "ArgumentOfPerigee": 275.5543,
            "MeanAnomaly": 84.4209,
            "MeanMotion": 1.86232286,
            "RevolutionNumber": "4556"
        },
        {
            "Name": "BEIDOU-3 M10 (C30)",
            "Line1": "1 43246U 18029B   24343.66903189 -.00000056  00000+0  00000+0 0  9997",
            "Line2": "2 43246  54.6812 319.3265 0004082 347.5464  12.4452  1.86232648 45538",
            "SatelliteNumber": "43246",
            "Classification": "U",
            "LaunchYear": "18",
            "LaunchNumber": "029",
            "PieceOfLaunch": "B",
            "EpochYear": "24",
            "EpochDay": 343.66903189,
            "FirstDerivativeMeanMotion": -5.6e-07,
            "SecondDerivativeMeanMotion": "00000+0",
            "BSTAR": "00000+0",
            "SetNumber": "999",
            "Inclination": 54.6812,
            "RAAN": 319.3265,
            "Eccentricity": 0.0004082,
            "ArgumentOfPerigee": 347.5464,
            "MeanAnomaly": 12.4452,
            "MeanMotion": 1.86232648,
            "RevolutionNumber": "4553"
        },
        {
            "Name": "BEIDOU-2 IGSO-7 (C16)",
            "Line1": "1 43539U 18057A   24344.35917150 -.00000037  00000+0  00000+0 0  9992",
            "Line2": "2 43539  55.1538 167.8601 0078496 231.9558 280.0403  1.00257792 23576",
            "SatelliteNumber": "43539",
            "Classification": "U",
            "LaunchYear": "18",
            "LaunchNumber": "057",
            "PieceOfLaunch": "A",
            "EpochYear": "24",
            "EpochDay": 344.3591715,
            "FirstDerivativeMeanMotion": -3.7e-07,
            "SecondDerivativeMeanMotion": "00000+0",
            "BSTAR": "00000+0",
            "SetNumber": "999",
            "Inclination": 55.1538,
            "RAAN": 167.8601,
            "Eccentricity": 0.0078496,
            "ArgumentOfPerigee": 231.9558,
            "MeanAnomaly": 280.0403,
            "MeanMotion": 1.00257792,
            "RevolutionNumber": "2357"
        },
        {
            "Name": "BEIDOU-3 M5 (C23)",
            "Line1": "1 43581U 18062A   24343.89484973  .00000089  00000+0  00000+0 0  9991",
            "Line2": "2 43581  54.1132 201.1878 0001992 343.8215  16.2542  1.86228514 43298",
            "SatelliteNumber": "43581",
            "Classification": "U",
            "LaunchYear": "18",
            "LaunchNumber": "062",
            "PieceOfLaunch": "A",
            "EpochYear": "24",
            "EpochDay": 343.89484973,
            "FirstDerivativeMeanMotion": 8.9e-07,
            "SecondDerivativeMeanMotion": "00000+0",
            "BSTAR": "00000+0",
            "SetNumber": "999",
            "Inclination": 54.1132,
            "RAAN": 201.1878,
            "Eccentricity": 0.0001992,
            "ArgumentOfPerigee": 343.8215,
            "MeanAnomaly": 16.2542,
            "MeanMotion": 1.86228514,
            "RevolutionNumber": "4329"
        },
        {
            "Name": "BEIDOU-3 M6 (C24)",
            "Line1": "1 43582U 18062B   24343.75975920  .00000088  00000+0  00000+0 0  9993",
            "Line2": "2 43582  54.1128 201.1817 0007299  40.8170 319.3196  1.86229563 43294",
            "SatelliteNumber": "43582",
            "Classification": "U",
            "LaunchYear": "18",
            "LaunchNumber": "062",
            "PieceOfLaunch": "B",
            "EpochYear": "24",
            "EpochDay": 343.7597592,
            "FirstDerivativeMeanMotion": 8.8e-07,
            "SecondDerivativeMeanMotion": "00000+0",
            "BSTAR": "00000+0",
            "SetNumber": "999",
            "Inclination": 54.1128,
            "RAAN": 201.1817,
            "Eccentricity": 0.0007299,
            "ArgumentOfPerigee": 40.817,
            "MeanAnomaly": 319.3196,
            "MeanMotion": 1.86229563,
            "RevolutionNumber": "4329"
        },
        {
            "Name": "BEIDOU-3 M12 (C26)",
            "Line1": "1 43602U 18067A   24344.23072039  .00000094  00000+0  00000+0 0  9991",
            "Line2": "2 43602  54.2047 199.8630 0008629  35.0434 325.0952  1.86227644 42786",
            "SatelliteNumber": "43602",
            "Classification": "U",
            "LaunchYear": "18",
            "LaunchNumber": "067",
            "PieceOfLaunch": "A",
            "EpochYear": "24",
            "EpochDay": 344.23072039,
            "FirstDerivativeMeanMotion": 9.4e-07,
            "SecondDerivativeMeanMotion": "00000+0",
            "BSTAR": "00000+0",
            "SetNumber": "999",
            "Inclination": 54.2047,
            "RAAN": 199.863,
            "Eccentricity": 0.0008629,
            "ArgumentOfPerigee": 35.0434,
            "MeanAnomaly": 325.0952,
            "MeanMotion": 1.86227644,
            "RevolutionNumber": "4278"
        },
        {
            "Name": "BEIDOU-3 M11 (C25)",
            "Line1": "1 43603U 18067B   24343.29031650  .00000087  00000+0  00000+0 0  9993",
            "Line2": "2 43603  54.2020 199.8597 0005222  30.7932 329.3185  1.86227163 42793",
            "SatelliteNumber": "43603",
            "Classification": "U",
            "LaunchYear": "18",
            "LaunchNumber": "067",
            "PieceOfLaunch": "B",
            "EpochYear": "24",
            "EpochDay": 343.2903165,
            "FirstDerivativeMeanMotion": 8.7e-07,
            "SecondDerivativeMeanMotion": "00000+0",
            "BSTAR": "00000+0",
            "SetNumber": "999",
            "Inclination": 54.202,
            "RAAN": 199.8597,
            "Eccentricity": 0.0005222,
            "ArgumentOfPerigee": 30.7932,
            "MeanAnomaly": 329.3185,
            "MeanMotion": 1.86227163,
            "RevolutionNumber": "4279"
        }
    ]
}